332P-F/Ikeya-Murakami,e,9.5293,3.4757,152.8203,3.163214,0.1751908,0.49918860,359.8501,03/17.0/2016,2000,g 21.0,4.0
# From MPEC 2016-ED0
332P-G/Ikeya-Murakami,e,9.2523,3.6955,154.4000,3.050519,0.1849880,0.49200362,359.9006,03/19.0/2016,2000,g 19.0,4.0
# From MPC100285
332P-H/Ikeya-Murakami,e,9.3794,3.7875,152.3351,3.089410,0.1815059,0.48952411,342.8109,05/16.0/2021,2000,g 19.0,4.0
# From MPEC 2016-ED0
332P-I/Ikeya-Murakami,e,9.3791,3.8048,152.3297,3.081767,0.1821815,0.48955490,359.9360,03/17.0/2016,2000,g 20.5,2.0
# From MPEC 2016-EI8
332P-J/Ikeya-Murakami,e,9.4296,3.6729,152.7712,3.115165,0.1792596,0.49429435,359.8613,03/17.0/2016,2000,g 20.5,2.0
# From MPEC 2020-L06
333P/LINEAR,e,131.9802,115.6256,26.0082,4.219096,0.1137300,0.73678468,212.8991,05/16.0/2021,2000,g 15.0,4.0
# From MPC115888
334P/NEAT,e,20.4350,90.6795,90.0644,6.838637,0.0551125,0.35172295,79.3072,05/16.0/2021,2000,g 10.5,4.0
# From MPC100285
335P/Gibbs,e,7.2935,330.8482,162.2655,3.577994,0.1456279,0.54581830,294.0223,05/16.0/2021,2000,g 17.0,4.0
# From MPC105244
336P/McNaught,e,17.8336,298.2308,308.7579,5.032343,0.0873069,0.44509932,136.5060,05/16.0/2021,2000,g 13.5,4.0
# From MPC115888
337P/WISE,e,15.3721,106.0694,161.0003,3.287186,0.1653741,0.49679249,292.0174,05/16.0/2021,2000,g 17.0,4.0
# From MPC104796
338P/McNaught,e,25.3791,9.7901,4.4020,3.897126,0.1281113,0.41145089,209.4584,05/16.0/2021,2000,g 12.0,4.0
# From MPC101101
339P/Gibbs,e,5.7339,172.7329,27.5159,3.696627,0.1386742,0.63557747,243.9151,05/16.0/2021,2000,g 17.0,4.0
# From MPC102957
340P/Boattini,e,2.0793,291.7209,35.8458,4.251203,0.1124440,0.28077172,184.1097,05/16.0/2021,2000,g 13.0,4.0
# From MPEC 2021-BE3
341P/Gibbs,e,3.7956,29.9804,312.1533,4.293432,0.1107891,0.41546915,200.8238,05/16.0/2021,2000,g 12.5,4.0
# From MPC101101
342P/SOHO,e,11.6664,27.7837,73.1982,3.043118,0.1856632,0.98279193,0.0000,10/19.2936/2021,2000,g  9.0,4.0
# From MPC109148
343P/NEAT-LONEOS,e,5.5844,257.2053,137.3767,5.460363,0.0772452,0.58421701,121.1661,05/16.0/2021,2000,g 14.0,4.0
# From MPC109148
344P/Read,e,3.4909,273.1735,140.3824,4.865647,0.0918318,0.42193853,152.1820,05/16.0/2021,2000,g 13.0,4.0
# From MPC109148
345P/LINEAR,e,2.7271,154.5054,196.3940,4.038753,0.1214320,0.22101943,214.0912,05/16.0/2021,2000,g 12.0,4.0
# From MPC110086
346P/Catalina,e,22.1869,102.4659,335.9786,4.475733,0.1040897,0.50238072,161.6055,05/16.0/2021,2000,g 14.0,4.0
# From MPC108599
347P/PANSTARRS,e,11.7495,261.0313,98.3336,3.606130,0.1439269,0.38574414,245.5633,05/16.0/2021,2000,g 15.0,4.0
# From MPEC 2020-SI8
348P/PANSTARRS,e,17.7406,312.9418,135.6256,3.150381,0.1762623,0.30669655,311.9809,05/16.0/2021,2000,g 14.0,4.0
# From MPC112394
349P/Lemmon,e,5.4909,331.7439,256.0441,3.573175,0.1459226,0.29899857,198.3952,05/16.0/2021,2000,g 14.0,4.0
# From MPC111775
350P/McNaught,e,7.3574,65.3375,140.1940,4.091596,0.1190872,0.09151189,148.6195,05/16.0/2021,2000,g 14.0,4.0
# From MPC105244
351P/Wiegert-PANSTARRS,e,12.7880,283.4485,352.6641,4.437556,0.1054358,0.29586505,211.3921,05/16.0/2021,2000,g 12.5,4.0
# From MPC110086
352P/Skiff,e,21.0091,28.0648,309.1920,6.637734,0.0576334,0.61822557,82.0383,05/16.0/2021,2000,g 11.5,4.0
# From MPEC 2020-AA5
353P/McNaught,e,28.4241,121.5615,230.3842,4.171262,0.1156919,0.47012902,143.5873,05/16.0/2021,2000,g 14.5,4.0
# From MPC105545
354P/LINEAR,e,5.2556,320.1290,132.9599,2.289580,0.2844922,0.12567480,109.1789,05/16.0/2021,2000,g 15.5,4.0
# From MPEC 2020-AA5
355P/LINEAR-NEAT,e,11.0393,51.4328,336.2524,3.471829,0.1523585,0.50717656,199.7295,05/16.0/2021,2000,g 15.5,2.0
# From MPEC 2021-F20
356P/WISE,e,9.6370,160.7939,225.9928,4.159720,0.1161737,0.35500197,144.7072,05/16.0/2021,2000,g 14.0,4.0
# From MPC114609
357P/Hill,e,6.3114,44.5704,1.3976,4.460655,0.1046179,0.43479031,113.3013,05/16.0/2021,2000,g 15.5,4.0
# From MPEC 2020-HN5
358P/PANSTARRS,e,11.0579,85.7079,299.7296,3.147698,0.1764877,0.23841922,199.4836,05/16.0/2021,2000,g 18.0,4.0
# From MPC110086
359P/LONEOS,e,10.2670,149.7559,200.1570,4.639633,0.0986231,0.32409223,134.4612,05/16.0/2021,2000,g 13.5,4.0
# From MPC108599
360P/WISE,e,24.1044,2.1902,354.1268,3.702263,0.1383576,0.49889668,188.9233,05/16.0/2021,2000,g 19.5,6.0
# From MPC114609
361P/Spacewatch,e,13.8921,203.2505,219.0579,4.938813,0.0897987,0.43804094,94.1808,05/16.0/2021,2000,g 12.0,4.0
# From MPEC 2017-V13
362P/,e,15.5566,192.5694,53.7008,3.968849,0.1246543,0.27947173,215.2392,05/16.0/2021,2000,g 12.9,2.0
# From MPC114609
363P/Lemmon,e,5.3953,146.9400,341.2756,3.548001,0.1474784,0.52676413,172.1965,05/16.0/2021,2000,g 17.5,4.0
# From MPEC 2021-F20
364P/PANSTARRS,e,12.1404,46.1919,212.0054,2.879248,0.2017370,0.72221918,213.1742,05/16.0/2021,2000,g 17.0,2.0
# From MPC111775
365P/PANSTARRS,e,9.8270,87.2627,66.3253,3.175735,0.1741557,0.57708145,207.0023,05/16.0/2021,2000,g 17.0,4.0
# From MPC114610
366P/Spacewatch,e,8.8589,70.7584,153.1425,3.495728,0.1507987,0.34828041,155.3708,05/16.0/2021,2000,g 15.0,4.0
# From MPC112395
367P/Catalina,e,8.4625,58.7205,172.9091,3.505679,0.1501571,0.28025863,159.1844,05/16.0/2021,2000,g 17.5,2.0
# From MPC114610
368P/NEAT,e,15.4816,257.9439,118.7912,5.527041,0.0758517,0.62639881,73.9079,05/16.0/2021,2000,g 14.0,4.0
# From MPC114610
369P/Hill,e,10.3139,47.2958,13.1822,4.384451,0.1073572,0.55441993,101.3293,05/16.0/2021,2000,g 15.0,4.0
# From MPEC 2021-F20
370P/NEAT,e,19.4047,55.1181,356.6841,6.435086,0.0603771,0.61458958,64.6907,05/16.0/2021,2000,g 13.0,4.0
# From MPC114610
371P/LINEAR-Skiff,e,17.3775,67.3017,308.4623,4.181110,0.1152834,0.47663979,109.9862,05/16.0/2021,2000,g 16.0,4.0
# From MPEC 2020-K19
372P/McNaught,e,9.5101,325.8160,27.2968,4.504397,0.1030977,0.15271113,96.6074,05/16.0/2021,2000,g 13.5,4.0
# From MPEC 2021-F20
373P/Rinner,e,13.7613,231.9480,221.1034,3.803721,0.1328590,0.39219461,102.0655,05/16.0/2021,2000,g 14.5,4.0
# From MPC114610
374P/Larson,e,10.7634,7.9120,51.4940,4.973790,0.0888532,0.46251454,76.0830,05/16.0/2021,2000,g 14.0,4.0
# From MPEC 2021-F20
375P/Hill,e,17.3612,359.9441,119.4609,5.556597,0.0752473,0.65858217,65.9911,05/16.0/2021,2000,g 16.0,4.0
# From MPEC 2020-W26
376P/LONEOS,e,1.1914,314.7964,284.8091,5.838019,0.0698724,0.51748030,41.7083,05/16.0/2021,2000,g 12.5,4.0
# From MPEC 2020-FB5
377P/Scotti,e,9.0232,226.0600,355.0277,6.710737,0.0566955,0.25236799,17.4704,05/16.0/2021,2000,g  9.5,4.0
# From MPEC 2019-TG9
378P/McNaught,e,19.0646,94.4398,193.9273,6.384353,0.0610982,0.47066156,12.7133,05/16.0/2021,2000,g 12.0,4.0
# From MPC115889
379P/Spacewatch,e,12.4175,183.8328,31.0202,3.522132,0.1491062,0.33990396,97.4902,05/16.0/2021,2000,g 15.0,4.0
# From MPEC 2020-KB7
380P/PANSTARRS,e,8.2850,132.9863,88.6839,4.516554,0.1026817,0.33247832,73.2143,05/16.0/2021,2000,g 12.5,4.0
# From MPEC 2021-J28
381P/LINEAR-Spacewatch,e,28.3757,173.7720,173.1649,7.123307,0.0518420,0.68184207,30.9474,05/16.0/2021,2000,g 17.5,2.0
# From MPEC 2021-J28
382P/Larson,e,7.8408,175.2982,173.5050,6.374191,0.0612444,0.30958629,340.9486,05/16.0/2021,2000,g  8.0,4.0
# From MPC118844
383P/Christensen,e,12.3211,207.8709,133.6780,3.545209,0.1476527,0.59960344,83.8212,05/16.0/2021,2000,g 18.0,4.0
# From MPEC 2020-W26
384P/Kowalski,e,7.2836,354.2276,37.6230,2.901126,0.1994593,0.61556257,116.1820,05/16.0/2021,2000,g 19.5,4.0
# From MPEC 2021-F20
385P/Hill,e,16.8294,357.0624,44.3263,4.288393,0.1109845,0.40146886,67.6059,05/16.0/2021,2000,g 13.0,4.0
# From MPEC 2021-J28
386P/PANSTARRS,e,15.2296,134.9479,353.2283,4.057002,0.1206136,0.41631392,32.5312,05/16.0/2021,2000,g 14.5,4.0
# From MPEC 2021-J28
387P/Boattini,e,8.9186,259.3190,162.7731,4.798738,0.0937591,0.73609239,57.9227,05/16.0/2021,2000,g 15.0,4.0
# From MPEC 2021-F20
388P/Gibbs,e,23.8674,37.0430,42.3655,5.244397,0.0820655,0.61800101,54.3642,05/16.0/2021,2000,g 13.0,4.0
# From MPEC 2021-J28
389P/Siding Spring,e,160.0681,218.8515,249.3042,5.626835,0.0738427,0.70432998,37.2007,05/16.0/2021,2000,g 16.0,4.0
# From MPEC 2021-J28
390P/Gibbs,e,18.5613,152.2751,232.3512,5.803291,0.0705006,0.70711243,29.5901,05/16.0/2021,2000,g 12.0,4.0
# From MPEC 2021-F20
391P/Kowalski,e,21.2760,124.7306,186.9614,4.678732,0.0973894,0.12069338,112.1993,05/16.0/2021,2000,g  8.0,4.0
# From MPEC 2021-J28
392P/LINEAR,e,4.9302,24.8809,71.9660,6.146211,0.0646834,0.68279646,26.5339,05/16.0/2021,2000,g 14.5,4.0
# From MPEC 2021-BE3
393P/Spacewatch-Hill,e,16.7915,36.4170,328.2228,4.786418,0.0941214,0.12053258,53.5038,05/16.0/2021,2000,g 11.0,4.0
# From MPEC 2020-KB7
394P/PANSTARRS,e,8.5295,98.1249,54.5191,4.332141,0.1093076,0.36788935,58.2257,05/16.0/2021,2000,g 16.0,2.4
# From MPEC 2021-J28
395P/Catalina-NEAT,e,3.2778,223.7670,89.7941,6.538595,0.0589491,0.37834055,346.5079,05/16.0/2021,2000,g 10.0,4.0
# From MPEC 2020-KB7
396P/,e,5.4363,136.6636,8.6031,6.818559,0.0553561,0.41597397,34.6747,05/16.0/2021,2000,g 12.0,4.0
# From MPEC 2021-F20
397P/Lemmon,e,10.9283,8.2045,14.4315,3.827342,0.1316310,0.40504812,43.5210,05/16.0/2021,2000,g 12.0,4.0
# From MPEC 2021-J28
398P/Boattini,e,11.0154,127.4621,320.2360,3.128356,0.1781271,0.58263930,24.9829,05/16.0/2021,2000,g 15.5,4.0
# From MPEC 2021-F20
399P/PANSTARRS,e,13.3191,207.1465,214.2921,3.789009,0.1336336,0.44681310,359.1222,05/16.0/2021,2000,g 15.6,4.0
# From MPEC 2020-FB5
400P/PANSTARRS,e,10.9290,176.3963,238.7898,3.559594,0.1467585,0.40910326,13.9270,05/16.0/2021,2000,g 15.5,2.8
# From MPEC 2021-BE3
401P/McNaught,e,12.8039,359.8870,309.3228,5.772358,0.0710680,0.58012242,37.3372,05/16.0/2021,2000,g 12.5,4.0
# From MPEC 2021-J28
402P/LINEAR,e,30.8528,123.0889,326.7465,7.009649,0.0531080,0.43822769,348.7068,05/16.0/2021,2000,g  8.0,4.0
# From MPEC 2021-J28
403P/Catalina,e,12.3207,163.8131,277.6679,5.427151,0.0779554,0.50339426,18.8374,05/16.0/2021,2000,g 12.0,4.0
# From MPEC 2020-W26
404P/Bressi,e,9.7528,262.0411,161.3327,4.833661,0.0927449,0.13717208,280.8978,05/16.0/2021,2000,g 10.0,4.0
# From MPEC 2021-J28
405P/Lemmon,e,9.3652,3.3126,112.2437,3.609244,0.1437407,0.68916799,20.5099,05/16.0/2021,2000,g 17.5,4.0
# From MPEC 2021-F20
